{
"type": "FeatureCollection",
"crs": { "type": "name", "properties": { "name": "urn:ogc:def:crs:OGC:1.3:CRS84" } },
                                                                                
"features": [
{ "type": "Feature", "properties": { "id": 43652527, "amenity": "bank", "name": "Sparkasse", "operator": "Sparkasse", "atm": "yes" }, "geometry": { "type": "Point", "coordinates": [ 7.6467787, 51.9637998 ] } },
{ "type": "Feature", "properties": { "id": 243341290, "amenity": "bank", "name": "Sparkasse", "operator": "Sparkasse", "atm": "yes" }, "geometry": { "type": "Point", "coordinates": [ 7.6119524, 51.9838146 ] } },
{ "type": "Feature", "properties": { "id": 247783100, "amenity": "bank", "name": "Sparkasse", "operator": "Sparkasse", "atm": "yes" }, "geometry": { "type": "Point", "coordinates": [ 7.5641122, 51.9730351 ] } },
{ "type": "Feature", "properties": { "id": 248507757, "amenity": "bank", "name": "Sparkasse", "operator": "Sparkasse", "atm": null }, "geometry": { "type": "Point", "coordinates": [ 7.5936849, 51.9567269 ] } },
{ "type": "Feature", "properties": { "id": 251147612, "amenity": "bank", "name": "Sparda-Bank", "operator": "Sparda-Bank", "atm": null }, "geometry": { "type": "Point", "coordinates": [ 7.6340878, 51.9823686 ] } },
{ "type": "Feature", "properties": { "id": 256535301, "amenity": "bank", "name": "Sparkasse", "operator": "Sparkasse", "atm": null }, "geometry": { "type": "Point", "coordinates": [ 7.6558514, 51.9667169 ] } },
{ "type": "Feature", "properties": { "id": 267517196, "amenity": "bank", "name": "Commerzbank", "operator": "Commerzbank", "atm": null }, "geometry": { "type": "Point", "coordinates": [ 7.6248148, 51.9510813 ] } },
{ "type": "Feature", "properties": { "id": 267517200, "amenity": "bank", "name": "Sparkasse", "operator": "Sparkasse", "atm": "yes" }, "geometry": { "type": "Point", "coordinates": [ 7.6262696, 51.9540789 ] } },
{ "type": "Feature", "properties": { "id": 267845309, "amenity": "bank", "name": "Sparkasse", "operator": "Sparkasse", "atm": "yes" }, "geometry": { "type": "Point", "coordinates": [ 7.6093649, 51.9401946 ] } },
{ "type": "Feature", "properties": { "id": 269941216, "amenity": "bank", "name": "Sparkasse", "operator": "Sparkasse", "atm": null }, "geometry": { "type": "Point", "coordinates": [ 7.6759885, 51.9611741 ] } },
{ "type": "Feature", "properties": { "id": 283448829, "amenity": "atm", "name": "Volksbank", "operator": "Volksbank", "atm": null }, "geometry": { "type": "Point", "coordinates": [ 7.6110652, 51.9738159 ] } },
{ "type": "Feature", "properties": { "id": 288385411, "amenity": "atm", "name": "Volksbank", "operator": "Volksbank", "atm": null }, "geometry": { "type": "Point", "coordinates": [ 7.6341057, 51.9836258 ] } },
{ "type": "Feature", "properties": { "id": 290428952, "amenity": "bank", "name": "Sparkasse", "operator": "Sparkasse", "atm": "yes" }, "geometry": { "type": "Point", "coordinates": [ 7.6331317, 51.957136 ] } },
{ "type": "Feature", "properties": { "id": 290428963, "amenity": "bank", "name": "Sparkasse", "operator": "Sparkasse", "atm": "yes" }, "geometry": { "type": "Point", "coordinates": [ 7.6306269, 51.968235 ] } },
{ "type": "Feature", "properties": { "id": 296301896, "amenity": "bank", "name": "Sparkasse", "operator": "Sparkasse", "atm": "yes" }, "geometry": { "type": "Point", "coordinates": [ 7.6405375, 51.9707701 ] } },
{ "type": "Feature", "properties": { "id": 297692803, "amenity": "bank", "name": "Volksbank", "operator": "Volksbank", "atm": null }, "geometry": { "type": "Point", "coordinates": [ 7.6730057, 51.9240912 ] } },
{ "type": "Feature", "properties": { "id": 301306348, "amenity": "bank", "name": "Sparkasse", "operator": "Sparkasse", "atm": null }, "geometry": { "type": "Point", "coordinates": [ 7.6985961, 51.9877564 ] } },
{ "type": "Feature", "properties": { "id": 335681474, "amenity": "bank", "name": "PSD-Bank", "operator": "PSD-Bank", "atm": null }, "geometry": { "type": "Point", "coordinates": [ 7.6372997, 51.9816174 ] } },
{ "type": "Feature", "properties": { "id": 335682324, "amenity": "bank", "name": "Sparkasse", "operator": "Sparkasse", "atm": null }, "geometry": { "type": "Point", "coordinates": [ 7.646845, 51.9935623 ] } },
{ "type": "Feature", "properties": { "id": 385219739, "amenity": "bank", "name": "Volksbank", "operator": "Volksbank", "atm": "yes" }, "geometry": { "type": "Point", "coordinates": [ 7.6130833, 51.9529535 ] } },
{ "type": "Feature", "properties": { "id": 411060180, "amenity": "bank", "name": "Sparkasse", "operator": "Sparkasse", "atm": "yes" }, "geometry": { "type": "Point", "coordinates": [ 7.5812635, 51.9301848 ] } },
{ "type": "Feature", "properties": { "id": 413459205, "amenity": "bank", "name": "Volksbank", "operator": "Volksbank", "atm": "yes" }, "geometry": { "type": "Point", "coordinates": [ 7.6487776, 51.9644515 ] } },
{ "type": "Feature", "properties": { "id": 413459206, "amenity": "bank", "name": "Volksbank", "operator": "Volksbank", "atm": "yes" }, "geometry": { "type": "Point", "coordinates": [ 7.6395899, 51.9580074 ] } },
{ "type": "Feature", "properties": { "id": 413459207, "amenity": "bank", "name": "Volksbank", "operator": "Volksbank", "atm": "yes" }, "geometry": { "type": "Point", "coordinates": [ 7.6284922, 51.9644222 ] } },
{ "type": "Feature", "properties": { "id": 440691066, "amenity": "atm", "name": "Sparkasse", "operator": "Sparkasse", "atm": null }, "geometry": { "type": "Point", "coordinates": [ 7.7228728, 51.9129122 ] } },
{ "type": "Feature", "properties": { "id": 456750490, "amenity": "bank", "name": "Sparkasse", "operator": "Sparkasse", "atm": "yes" }, "geometry": { "type": "Point", "coordinates": [ 7.6039516, 51.9949051 ] } },
{ "type": "Feature", "properties": { "id": 456780944, "amenity": "bank", "name": "Volksbank", "operator": "Volksbank", "atm": "yes" }, "geometry": { "type": "Point", "coordinates": [ 7.6027554, 51.9959708 ] } },
{ "type": "Feature", "properties": { "id": 457091391, "amenity": "bank", "name": "Sparkasse", "operator": "Sparkasse", "atm": "yes" }, "geometry": { "type": "Point", "coordinates": [ 7.6060921, 51.9307701 ] } },
{ "type": "Feature", "properties": { "id": 500017669, "amenity": "bank", "name": "Volksbank", "operator": "Volksbank", "atm": "yes" }, "geometry": { "type": "Point", "coordinates": [ 7.6219417, 51.9702371 ] } },
{ "type": "Feature", "properties": { "id": 516473197, "amenity": "atm", "name": "Volksbank", "operator": "Volksbank", "atm": null }, "geometry": { "type": "Point", "coordinates": [ 7.6276367, 51.9616276 ] } },
{ "type": "Feature", "properties": { "id": 520231294, "amenity": "bank", "name": "Deutsche Bank", "operator": "Deutsche Bank", "atm": "yes" }, "geometry": { "type": "Point", "coordinates": [ 7.6243118, 51.9605224 ] } },
{ "type": "Feature", "properties": { "id": 520240380, "amenity": "atm", "name": "Volksbank", "operator": "Volksbank", "atm": null }, "geometry": { "type": "Point", "coordinates": [ 7.6280545, 51.959261 ] } },
{ "type": "Feature", "properties": { "id": 523365441, "amenity": "bank", "name": "Sparda-Bank", "operator": "Sparda-Bank", "atm": "yes" }, "geometry": { "type": "Point", "coordinates": [ 7.6260293, 51.9598842 ] } },
{ "type": "Feature", "properties": { "id": 523365452, "amenity": "bank", "name": "Commerzbank", "operator": "Commerzbank", "atm": "yes" }, "geometry": { "type": "Point", "coordinates": [ 7.6262176, 51.9578728 ] } },
{ "type": "Feature", "properties": { "id": 523365460, "amenity": "bank", "name": "Sparkasse", "operator": "Sparkasse", "atm": "yes" }, "geometry": { "type": "Point", "coordinates": [ 7.6269474, 51.9607247 ] } },
{ "type": "Feature", "properties": { "id": 525970923, "amenity": "bank", "name": "Volksbank", "operator": "Volksbank", "atm": "yes" }, "geometry": { "type": "Point", "coordinates": [ 7.5241871, 51.9251786 ] } },
{ "type": "Feature", "properties": { "id": 526429368, "amenity": "bank", "name": "Postbank", "operator": "Postbank", "atm": "yes" }, "geometry": { "type": "Point", "coordinates": [ 7.6259814, 51.9619407 ] } },
{ "type": "Feature", "properties": { "id": 538953190, "amenity": "bank", "name": "Sparkasse", "operator": "Sparkasse", "atm": "yes" }, "geometry": { "type": "Point", "coordinates": [ 7.639098, 51.9531735 ] } },
{ "type": "Feature", "properties": { "id": 606068754, "amenity": "bank", "name": "PSD-Bank", "operator": "PSD-Bank", "atm": "yes" }, "geometry": { "type": "Point", "coordinates": [ 7.637135, 51.9512072 ] } },
{ "type": "Feature", "properties": { "id": 612344810, "amenity": "bank", "name": "Deutsche Bank", "operator": "Deutsche Bank", "atm": "yes" }, "geometry": { "type": "Point", "coordinates": [ 7.629963, 51.9599567 ] } },
{ "type": "Feature", "properties": { "id": 646827917, "amenity": "bank", "name": "Sparkasse", "operator": "Sparkasse", "atm": "yes" }, "geometry": { "type": "Point", "coordinates": [ 7.6080057, 51.9464708 ] } },
{ "type": "Feature", "properties": { "id": 667520640, "amenity": "atm", "name": "Sparda-Bank", "operator": "Sparda-Bank", "atm": null }, "geometry": { "type": "Point", "coordinates": [ 7.600272, 51.9776285 ] } },
{ "type": "Feature", "properties": { "id": 673268438, "amenity": "bank", "name": "Sparkasse", "operator": "Sparkasse", "atm": "yes" }, "geometry": { "type": "Point", "coordinates": [ 7.5233554, 51.9247521 ] } },
{ "type": "Feature", "properties": { "id": 746270314, "amenity": "bank", "name": "Sparkasse", "operator": "Sparkasse", "atm": "yes" }, "geometry": { "type": "Point", "coordinates": [ 7.6171092, 51.9554323 ] } },
{ "type": "Feature", "properties": { "id": 752630245, "amenity": "bank", "name": "Sparkasse", "operator": "Sparkasse", "atm": "yes" }, "geometry": { "type": "Point", "coordinates": [ 7.6475101, 51.9550316 ] } },
{ "type": "Feature", "properties": { "id": 859268788, "amenity": "bank", "name": "Sparkasse", "operator": "Sparkasse", "atm": "yes" }, "geometry": { "type": "Point", "coordinates": [ 7.6101112, 51.9768349 ] } },
{ "type": "Feature", "properties": { "id": 889078513, "amenity": "bank", "name": "Sparkasse", "operator": "Sparkasse", "atm": "yes" }, "geometry": { "type": "Point", "coordinates": [ 7.6230757, 51.9458141 ] } },
{ "type": "Feature", "properties": { "id": 1011568385, "amenity": "bank", "name": "Sparkasse", "operator": "Sparkasse", "atm": "yes" }, "geometry": { "type": "Point", "coordinates": [ 7.5791514, 51.9676646 ] } },
{ "type": "Feature", "properties": { "id": 1097869948, "amenity": "atm", "name": "Sparkasse", "operator": "Sparkasse", "atm": null }, "geometry": { "type": "Point", "coordinates": [ 7.5641574, 51.9729856 ] } },
{ "type": "Feature", "properties": { "id": 1112271116, "amenity": "bank", "name": "Volksbank", "operator": "Volksbank", "atm": "yes" }, "geometry": { "type": "Point", "coordinates": [ 7.627934, 51.9637724 ] } },
{ "type": "Feature", "properties": { "id": 1159233462, "amenity": "bank", "name": "Santander", "operator": "Santander Bank", "atm": "yes" }, "geometry": { "type": "Point", "coordinates": [ 7.6262486, 51.9648891 ] } },
{ "type": "Feature", "properties": { "id": 1274099972, "amenity": "bank", "name": "Sparkasse", "operator": "Sparkasse", "atm": "yes" }, "geometry": { "type": "Point", "coordinates": [ 7.668867, 51.92756 ] } },
{ "type": "Feature", "properties": { "id": 1274113460, "amenity": "bank", "name": "Sparkasse", "operator": "Sparkasse", "atm": null }, "geometry": { "type": "Point", "coordinates": [ 7.66968, 51.95113 ] } },
{ "type": "Feature", "properties": { "id": 1274153354, "amenity": "bank", "name": "Sparkasse", "operator": "Sparkasse", "atm": null }, "geometry": { "type": "Point", "coordinates": [ 7.6378358, 51.9587956 ] } },
{ "type": "Feature", "properties": { "id": 1274172584, "amenity": "bank", "name": "Sparkasse", "operator": "Sparkasse", "atm": null }, "geometry": { "type": "Point", "coordinates": [ 7.61864, 51.92617 ] } },
{ "type": "Feature", "properties": { "id": 1274191015, "amenity": "bank", "name": "Sparkasse", "operator": "Sparkasse", "atm": null }, "geometry": { "type": "Point", "coordinates": [ 7.6891531, 51.9151539 ] } },
{ "type": "Feature", "properties": { "id": 1274252648, "amenity": "atm", "name": "Sparkasse", "operator": "Sparkasse", "atm": null }, "geometry": { "type": "Point", "coordinates": [ 7.71004, 52.00163 ] } },
{ "type": "Feature", "properties": { "id": 1274274293, "amenity": "bank", "name": "Sparkasse", "operator": "Sparkasse", "atm": "yes" }, "geometry": { "type": "Point", "coordinates": [ 7.5345465, 51.9549094 ] } },
{ "type": "Feature", "properties": { "id": 1303408128, "amenity": "atm", "name": "Sparkasse", "operator": "Sparkasse", "atm": "yes" }, "geometry": { "type": "Point", "coordinates": [ 7.6181842, 51.966725 ] } },
{ "type": "Feature", "properties": { "id": 1320349744, "amenity": "bank", "name": "Volksbank Münster", "operator": null, "atm": "yes" }, "geometry": { "type": "Point", "coordinates": [ 7.5341361, 51.9547579 ] } },
{ "type": "Feature", "properties": { "id": 1369061865, "amenity": "atm", "name": "ING-DiBa AG", "operator": "ING-DiBa AG", "atm": null }, "geometry": { "type": "Point", "coordinates": [ 7.6138276, 51.9675468 ] } },
{ "type": "Feature", "properties": { "id": 1423871554, "amenity": "atm", "name": "Volksbank", "operator": "Volksbank", "atm": null }, "geometry": { "type": "Point", "coordinates": [ 7.580795, 51.9292841 ] } },
{ "type": "Feature", "properties": { "id": 1557176725, "amenity": "atm", "name": "Volksbank", "operator": "Volksbank", "atm": null }, "geometry": { "type": "Point", "coordinates": [ 7.6049184, 51.9606944 ] } },
{ "type": "Feature", "properties": { "id": 1589492185, "amenity": "bank", "name": "Volksbank", "operator": null, "atm": "yes" }, "geometry": { "type": "Point", "coordinates": [ 7.6252059, 51.9522414 ] } },
{ "type": "Feature", "properties": { "id": 1592505431, "amenity": "atm", "name": "Sparkasse", "operator": "Sparkasse", "atm": null }, "geometry": { "type": "Point", "coordinates": [ 7.6002275, 51.9655054 ] } },
{ "type": "Feature", "properties": { "id": 1639494355, "amenity": "atm", "name": "Sparda-Bank", "operator": "Sparda-Bank", "atm": null }, "geometry": { "type": "Point", "coordinates": [ 7.6796081, 52.011171 ] } },
{ "type": "Feature", "properties": { "id": 1645535901, "amenity": "bank", "name": "HypoVereinsbank", "operator": "HypoVereinsbank", "atm": "yes" }, "geometry": { "type": "Point", "coordinates": [ 7.629517, 51.9630309 ] } },
{ "type": "Feature", "properties": { "id": 1788358529, "amenity": "bank", "name": "DKM Münster eG", "operator": "DKM Münster eG", "atm": "yes" }, "geometry": { "type": "Point", "coordinates": [ 7.6269729, 51.9667458 ] } },
{ "type": "Feature", "properties": { "id": 1803653589, "amenity": "bank", "name": "HypoVereinsbank", "operator": "HypoVereinsbank", "atm": null }, "geometry": { "type": "Point", "coordinates": [ 7.6302386, 51.9563092 ] } },
{ "type": "Feature", "properties": { "id": 2038933732, "amenity": "atm", "name": "Sparkasse", "operator": "Sparkasse", "atm": null }, "geometry": { "type": "Point", "coordinates": [ 7.6422563, 51.9776318 ] } },
{ "type": "Feature", "properties": { "id": 2038990177, "amenity": "atm", "name": "ING-DiBa AG", "operator": "ING-DiBa AG", "atm": null }, "geometry": { "type": "Point", "coordinates": [ 7.6350057, 51.9575059 ] } },
{ "type": "Feature", "properties": { "id": 2038995421, "amenity": "atm", "name": "Volksbank", "operator": "Volksbank", "atm": null }, "geometry": { "type": "Point", "coordinates": [ 7.6336016, 51.9570074 ] } },
{ "type": "Feature", "properties": { "id": 2039000700, "amenity": "bank", "name": "Postbank", "operator": "Postbank", "atm": "yes" }, "geometry": { "type": "Point", "coordinates": [ 7.6340655, 51.9557877 ] } },
{ "type": "Feature", "properties": { "id": 2049581673, "amenity": "atm", "name": "Sparkasse", "operator": "Sparkasse", "atm": null }, "geometry": { "type": "Point", "coordinates": [ 7.6379099, 51.9587426 ] } },
{ "type": "Feature", "properties": { "id": 2078804362, "amenity": "atm", "name": "Deutsche Bank", "operator": "Deutsche Bank", "atm": null }, "geometry": { "type": "Point", "coordinates": [ 7.5965233, 51.960904 ] } },
{ "type": "Feature", "properties": { "id": 2095372744, "amenity": "bank", "name": "Bankhaus Lampe KG", "operator": "Bankhaus Lampe KG", "atm": null }, "geometry": { "type": "Point", "coordinates": [ 7.6271292, 51.9621331 ] } }
]
}
